CCSDS_OMM_VERS,COMMENT,CREATION_DATE,ORIGINATOR,OBJECT_NAME,OBJECT_ID,CENTER_NAME,REF_FRAME,TIME_SYSTEM,MEAN_ELEMENT_THEORY,EPOCH,MEAN_MOTION,ECCENTRICITY,INCLINATION,RA_OF_ASC_NODE,ARG_OF_PERICENTER,MEAN_ANOMALY,EPHEMERIS_TYPE,CLASSIFICATION_TYPE,NORAD_CAT_ID,ELEMENT_SET_NO,REV_AT_EPOCH,BSTAR,MEAN_MOTION_DOT,MEAN_MOTION_DDOT,SEMIMAJOR_AXIS,PERIOD,APOAPSIS,PERIAPSIS,OBJECT_TYPE,RCS_SIZE,COUNTRY_CODE,LAUNCH_DATE,SITE,DECAY_DATE,FILE,GP_ID,TLE_LINE0,TLE_LINE1,TLE_LINE2
2,GENERATED VIA SPACE-TRACK.ORG API,2021-07-28T03:26:43,18 SPCS,STARLINK-1098,2020-001D,EARTH,TEME,UTC,SGP4,2021-07-27T20:16:29.496576,15.06389953,0.0001209,53.0571,354.6788,99.8674,260.2452,0,U,44917,999,8575,-5.4556e-05,-1.094e-05,0,6925.379,95.593,548.082,546.407,PAYLOAD,LARGE,US,2020-01-07,AFETR,,3084335,181596460,0 STARLINK-1098,1 44917U 20001D   21208.84478584 -.00001094  00000-0 -54556-4 0  9994,2 44917  53.0571 354.6788 0001209  99.8674 260.2452 15.06389953 85759
2,GENERATED VIA SPACE-TRACK.ORG API,2021-07-29T02:55:33,18 SPCS,STARLINK-1098,2020-001D,EARTH,TEME,UTC,SGP4,2021-07-28T18:34:02.677440,15.06393055,0.0001237,53.0571,350.5089,104.7706,255.342,0,U,44917,999,8589,-4.0075e-05,-8.78e-06,0,6925.37,95.593,548.092,546.378,PAYLOAD,LARGE,US,2020-01-07,AFETR,,3085005,181657595,0 STARLINK-1098,1 44917U 20001D   21209.77364210 -.00000878  00000-0 -40075-4 0  9997,2 44917  53.0571 350.5089 0001237 104.7706 255.3420 15.06393055 85894
2,GENERATED VIA SPACE-TRACK.ORG API,2021-07-28T22:56:11,18 SPCS,STARLINK-1098,2020-001D,EARTH,TEME,UTC,SGP4,2021-07-28T18:34:02.677440,15.06393055,0.0001237,53.0571,350.5089,104.7706,255.342,0,U,44917,999,8589,-4.0075e-05,-8.78e-06,0,6925.37,95.593,548.092,546.378,PAYLOAD,LARGE,US,2020-01-07,AFETR,,3084966,181638018,0 STARLINK-1098,1 44917U 20001D   21209.77364210 -.00000878  00000-0 -40075-4 0  9997,2 44917  53.0571 350.5089 0001237 104.7706 255.3420 15.06393055 85894
2,GENERATED VIA SPACE-TRACK.ORG API,2021-07-29T19:48:38,18 SPCS,STARLINK-1098,2020-001D,EARTH,TEME,UTC,SGP4,2021-07-29T13:40:31.085472,15.06389947,0.0001193,53.0571,346.9348,105.0731,255.039,0,U,44917,999,8601,9.0046e-05,1.06e-05,0,6925.379,95.593,548.071,546.418,PAYLOAD,LARGE,US,2020-01-07,AFETR,,3085488,181691683,0 STARLINK-1098,1 44917U 20001D   21210.56980423  .00001060  00000-0  90046-4 0  9991,2 44917  53.0571 346.9348 0001193 105.0731 255.0390 15.06389947 86017
2,GENERATED VIA SPACE-TRACK.ORG API,2021-07-30T03:36:10,18 SPCS,STARLINK-1098,2020-001D,EARTH,TEME,UTC,SGP4,2021-07-29T16:51:35.777952,15.06391677,0.0001162,53.057,346.339,105.9732,254.1385,0,U,44917,999,8603,8.6534e-05,1.008e-05,0,6925.374,95.593,548.044,546.434,PAYLOAD,LARGE,US,2020-01-07,AFETR,,3085670,181719390,0 STARLINK-1098,1 44917U 20001D   21210.70249743  .00001008  00000-0  86534-4 0  9999,2 44917  53.0570 346.3390 0001162 105.9732 254.1385 15.06391677 86032
2,GENERATED VIA SPACE-TRACK.ORG API,2021-07-30T07:06:14,18 SPCS,STARLINK-1098,2020-001D,EARTH,TEME,UTC,SGP4,2021-07-30T02:24:49.920192,15.06394151,0.0001141,53.057,344.552,105.7766,254.3349,0,U,44917,999,8609,9.2434e-05,1.096e-05,0,6925.366,95.593,548.022,546.441,PAYLOAD,LARGE,US,2020-01-07,AFETR,,3085878,181727024,0 STARLINK-1098,1 44917U 20001D   21211.10057778  .00001096  00000-0  92434-4 0  9992,2 44917  53.0570 344.5520 0001141 105.7766 254.3349 15.06394151 86097
2,GENERATED VIA SPACE-TRACK.ORG API,2021-07-30T18:14:19,18 SPCS,STARLINK-1098,2020-001D,EARTH,TEME,UTC,SGP4,2021-07-30T08:46:59.326752,15.06395684,0.0001128,53.057,343.3606,106.0105,254.1008,0,U,44917,999,8613,9.5222e-05,1.137e-05,0,6925.362,95.592,548.008,546.446,PAYLOAD,LARGE,US,2020-01-07,AFETR,,3085948,181747327,0 STARLINK-1098,1 44917U 20001D   21211.36596443  .00001137  00000-0  95222-4 0  9991,2 44917  53.0570 343.3606 0001128 106.0105 254.1008 15.06395684 86132
2,GENERATED VIA SPACE-TRACK.ORG API,2021-07-31T04:28:50,18 SPCS,STARLINK-1098,2020-001D,EARTH,TEME,UTC,SGP4,2021-07-30T15:09:08.623584,15.06399157,0.0001123,53.057,342.1693,106.196,253.9152,0,U,44917,999,8617,8.8872e-05,1.043e-05,0,6925.351,95.592,547.994,546.438,PAYLOAD,LARGE,US,2020-01-07,AFETR,,3086384,181780190,0 STARLINK-1098,1 44917U 20001D   21211.63134981  .00001043  00000-0  88872-4 0  9995,2 44917  53.0570 342.1693 0001123 106.1960 253.9152 15.06399157 86170
2,GENERATED VIA SPACE-TRACK.ORG API,2021-07-31T14:46:11,18 SPCS,STARLINK-1098,2020-001D,EARTH,TEME,UTC,SGP4,2021-07-31T07:04:32.208672,15.06400684,0.00011,53.0571,339.1911,105.1158,254.9953,0,U,44917,999,8627,5.4702e-05,5.34e-06,0,6925.346,95.592,547.973,546.45,PAYLOAD,LARGE,US,2020-01-07,AFETR,,3086791,181816410,0 STARLINK-1098,1 44917U 20001D   21212.29481723  .00000534  00000-0  54702-4 0  9996,2 44917  53.0571 339.1911 0001100 105.1158 254.9953 15.06400684 86272
2,GENERATED VIA SPACE-TRACK.ORG API,2021-07-31T17:34:40,18 SPCS,STARLINK-1098,2020-001D,EARTH,TEME,UTC,SGP4,2021-07-31T15:02:14.599968,15.06394528,0.0001107,53.0571,337.7021,104.4342,255.677,0,U,44917,999,8632,-3.0732e-07,-2.86e-06,0,6925.365,95.592,547.997,546.464,PAYLOAD,LARGE,US,2020-01-07,AFETR,,3086827,181835683,0 STARLINK-1098,1 44917U 20001D   21212.62655787 -.00000286  00000-0 -30732-6 0  9991,2 44917  53.0571 337.7021 0001107 104.4342 255.6770 15.06394528 86322
2,GENERATED VIA SPACE-TRACK.ORG API,2021-07-31T22:36:11,18 SPCS,STARLINK-1098,2020-001D,EARTH,TEME,UTC,SGP4,2021-07-31T15:02:14.599968,15.06394528,0.0001107,53.0571,337.7021,104.4342,255.677,0,U,44917,999,8632,-3.0732e-07,-2.86e-06,0,6925.365,95.592,547.997,546.464,PAYLOAD,LARGE,US,2020-01-07,AFETR,,3086986,181843811,0 STARLINK-1098,1 44917U 20001D   21212.62655787 -.00000286  00000-0 -30732-6 0  9991,2 44917  53.0571 337.7021 0001107 104.4342 255.6770 15.06394528 86322
2,GENERATED VIA SPACE-TRACK.ORG API,2021-08-01T18:09:23,18 SPCS,STARLINK-1098,2020-001D,EARTH,TEME,UTC,SGP4,2021-08-01T08:33:11.148192,15.06391876,0.0001121,53.0571,334.4262,104.1767,255.9347,0,U,44917,999,8643,-7.2609e-05,-1.362e-05,0,6925.373,95.593,548.015,546.462,PAYLOAD,LARGE,US,2020-01-07,AFETR,,3087492,181897533,0 STARLINK-1098,1 44917U 20001D   21213.35637903 -.00001362  00000-0 -72609-4 0  9995,2 44917  53.0571 334.4262 0001121 104.1767 255.9347 15.06391876 86435
2,GENERATED VIA SPACE-TRACK.ORG API,2021-08-02T03:10:00,18 SPCS,STARLINK-1098,2020-001D,EARTH,TEME,UTC,SGP4,2021-08-01T14:55:20.587584,15.06392982,0.0001109,53.0571,333.2348,104.2139,255.8973,0,U,44917,999,8647,-5.509e-05,-1.102e-05,0,6925.37,95.593,548.003,546.467,PAYLOAD,LARGE,US,2020-01-07,AFETR,,3087690,181925858,0 STARLINK-1098,1 44917U 20001D   21213.62176606 -.00001102  00000-0 -55090-4 0  9990,2 44917  53.0571 333.2348 0001109 104.2139 255.8973 15.06392982 86474
2,GENERATED VIA SPACE-TRACK.ORG API,2021-08-02T06:56:11,18 SPCS,STARLINK-1098,2020-001D,EARTH,TEME,UTC,SGP4,2021-08-02T00:28:34.839552,15.06393405,0.0001112,53.0571,331.4482,104.6448,255.4665,0,U,44917,999,8653,-4.0409e-05,-8.83e-06,0,6925.369,95.593,548.004,546.464,PAYLOAD,LARGE,US,2020-01-07,AFETR,,3087887,181933455,0 STARLINK-1098,1 44917U 20001D   21214.01984768 -.00000883  00000-0 -40409-4 0  9993,2 44917  53.0571 331.4482 0001112 104.6448 255.4665 15.06393405 86536
2,GENERATED VIA SPACE-TRACK.ORG API,2021-08-02T19:50:02,18 SPCS,STARLINK-1098,2020-001D,EARTH,TEME,UTC,SGP4,2021-08-02T11:37:21.533664,15.06387632,0.0001055,53.0569,329.363,103.8225,256.2882,0,U,44917,999,8660,5.338e-05,5.14e-06,0,6925.386,95.593,547.982,546.521,PAYLOAD,LARGE,US,2020-01-07,AFETR,,3088180,181959472,0 STARLINK-1098,1 44917U 20001D   21214.48427701  .00000514  00000-0  53380-4 0  9994,2 44917  53.0569 329.3630 0001055 103.8225 256.2882 15.06387632 86607
2,GENERATED VIA SPACE-TRACK.ORG API,2021-08-03T04:42:36,18 SPCS,STARLINK-1098,2020-001D,EARTH,TEME,UTC,SGP4,2021-08-02T16:23:58.723584,15.06388027,0.0001048,53.0568,328.4696,103.3685,256.7421,0,U,44917,999,8663,5.414e-05,5.25e-06,0,6925.385,95.593,547.976,546.524,PAYLOAD,LARGE,US,2020-01-07,AFETR,,3088384,182009679,0 STARLINK-1098,1 44917U 20001D   21214.68331856  .00000525  00000-0  54140-4 0  9998,2 44917  53.0568 328.4696 0001048 103.3685 256.7421 15.06388027 86631
2,GENERATED VIA SPACE-TRACK.ORG API,2021-08-03T14:46:11,18 SPCS,STARLINK-1098,2020-001D,EARTH,TEME,UTC,SGP4,2021-08-03T08:19:22.357920,15.06393343,0.0001003,53.0568,325.4913,105.0875,255.0225,0,U,44917,999,8673,5.9506e-05,6.05e-06,0,6925.369,95.593,547.929,546.539,PAYLOAD,LARGE,US,2020-01-07,AFETR,,3088758,182022165,0 STARLINK-1098,1 44917U 20001D   21215.34678655  .00000605  00000-0  59506-4 0  9993,2 44917  53.0568 325.4913 0001003 105.0875 255.0225 15.06393343 86733
2,GENERATED VIA SPACE-TRACK.ORG API,2021-08-03T20:59:49,18 SPCS,STARLINK-1098,2020-001D,EARTH,TEME,UTC,SGP4,2021-08-03T11:30:27.056448,15.06394147,9.95e-05,53.0568,324.8957,105.4491,254.6608,0,U,44917,999,8675,6.3494e-05,6.64e-06,0,6925.366,95.593,547.921,546.542,PAYLOAD,LARGE,US,2020-01-07,AFETR,,3088807,182041666,0 STARLINK-1098,1 44917U 20001D   21215.47947982  .00000664  00000-0  63494-4 0  9995,2 44917  53.0568 324.8957 0000995 105.4491 254.6608 15.06394147 86756
2,GENERATED VIA SPACE-TRACK.ORG API,2021-08-04T03:11:50,18 SPCS,STARLINK-1098,2020-001D,EARTH,TEME,UTC,SGP4,2021-08-03T14:41:31.746336,15.06395124,9.95e-05,53.0569,324.3001,105.0944,255.0155,0,U,44917,999,8677,7.012e-05,7.63e-06,0,6925.364,95.592,547.918,546.539,PAYLOAD,LARGE,US,2020-01-07,AFETR,,3088972,182093129,0 STARLINK-1098,1 44917U 20001D   21215.61217299  .00000763  00000-0  70120-4 0  9996,2 44917  53.0569 324.3001 0000995 105.0944 255.0155 15.06395124 86771
2,GENERATED VIA SPACE-TRACK.ORG API,2021-08-04T14:56:10,18 SPCS,STARLINK-1098,2020-001D,EARTH,TEME,UTC,SGP4,2021-08-04T11:23:32.231040,15.0639968,9.74e-05,53.0568,320.4282,106.5485,253.5611,0,U,44917,999,8690,7.8669e-05,8.91e-06,0,6925.35,95.592,547.889,546.54,PAYLOAD,LARGE,US,2020-01-07,AFETR,,3089412,182128874,0 STARLINK-1098,1 44917U 20001D   21216.47467860  .00000891  00000-0  78669-4 0  9990,2 44917  53.0568 320.4282 0000974 106.5485 253.5611 15.06399680 86907
